{
  "type": "FeatureCollection",
  "features": [
    {
      "type": "Feature",
      "properties": {
        "norad_id": 56564,
        "name": "BEIDOU-3 G4 (C62)",
        "group": "gnss",
        "lat": -0.757088877841652,
        "lon": -174.56650361981735,
        "alt_km": 35773.25023061642,
        "timestamp": "2025-12-06T20:37:56.314417+00:00",
        "meta_object_name": "BEIDOU-3 G4 (C62)",
        "meta_object_id": "2023-066A",
        "meta_epoch": "2025-12-06T13:00:38.692800",
        "meta_mean_motion": 1.00270963,
        "meta_eccentricity": 0.00031605,
        "meta_inclination": 0.829,
        "meta_ra_of_asc_node": 301.5238,
        "meta_arg_of_pericenter": 236.9643,
        "meta_mean_anomaly": 252.3208,
        "meta_ephemeris_type": 0,
        "meta_classification_type": "U",
        "meta_norad_cat_id": 56564,
        "meta_element_set_no": 999,
        "meta_rev_at_epoch": 946,
        "meta_bstar": 0,
        "meta_mean_motion_dot": -1.04e-06,
        "meta_mean_motion_ddot": 0,
        "tle_line1": "1 56564U 23066A   25340.54211450 -.00000104  00000+0  00000+0 0  9993",
        "tle_line2": "2 56564   0.8290 301.5238 0003160 236.9643 252.3208  1.00270963  9461"
      },
      "geometry": {
        "type": "Point",
        "coordinates": [
          -174.56650361981735,
          -0.757088877841652
        ]
      }
    },
    {
      "type": "Feature",
      "properties": {
        "norad_id": 56759,
        "name": "NVS-01 (IRNSS-1J)",
        "group": "gnss",
        "lat": -2.6152621389958775,
        "lon": 154.74276775634817,
        "alt_km": 35797.42274296398,
        "timestamp": "2025-12-06T20:37:56.314436+00:00",
        "meta_object_name": "NVS-01 (IRNSS-1J)",
        "meta_object_id": "2023-076A",
        "meta_epoch": "2025-12-06T12:34:10.875072",
        "meta_mean_motion": 1.002658,
        "meta_eccentricity": 0.00087238,
        "meta_inclination": 2.6341,
        "meta_ra_of_asc_node": 251.8288,
        "meta_arg_of_pericenter": 7.5159,
        "meta_mean_anomaly": 134.2556,
        "meta_ephemeris_type": 0,
        "meta_classification_type": "U",
        "meta_norad_cat_id": 56759,
        "meta_element_set_no": 999,
        "meta_rev_at_epoch": 918,
        "meta_bstar": 0,
        "meta_mean_motion_dot": -3.27e-06,
        "meta_mean_motion_ddot": 0,
        "tle_line1": "1 56759U 23076A   25340.52373698 -.00000327  00000+0  00000+0 0  9998",
        "tle_line2": "2 56759   2.6341 251.8288 0008723   7.5159 134.2556  1.00265800  9187"
      },
      "geometry": {
        "type": "Point",
        "coordinates": [
          154.74276775634817,
          -2.6152621389958775
        ]
      }
    },
    {
      "type": "Feature",
      "properties": {
        "norad_id": 57517,
        "name": "COSMOS 2569 (703K)",
        "group": "gnss",
        "lat": 1.1201302776961628,
        "lon": 79.63529562876606,
        "alt_km": 19123.16523193527,
        "timestamp": "2025-12-06T20:37:56.314454+00:00",
        "meta_object_name": "COSMOS 2569 (703K)",
        "meta_object_id": "2023-114A",
        "meta_epoch": "2025-12-01T16:42:34.469856",
        "meta_mean_motion": 2.13103822,
        "meta_eccentricity": 0.0010109,
        "meta_inclination": 65.1883,
        "meta_ra_of_asc_node": 79.2867,
        "meta_arg_of_pericenter": 287.0179,
        "meta_mean_anomaly": 72.8703,
        "meta_ephemeris_type": 0,
        "meta_classification_type": "U",
        "meta_norad_cat_id": 57517,
        "meta_element_set_no": 999,
        "meta_rev_at_epoch": 1805,
        "meta_bstar": 0,
        "meta_mean_motion_dot": -1.6e-07,
        "meta_mean_motion_ddot": 0,
        "tle_line1": "1 57517U 23114A   25335.69623229 -.00000016  00000+0  00000+0 0  9999",
        "tle_line2": "2 57517  65.1883  79.2867 0010109 287.0179  72.8703  2.13103822 18055"
      },
      "geometry": {
        "type": "Point",
        "coordinates": [
          79.63529562876606,
          1.1201302776961628
        ]
      }
    },
    {
      "type": "Feature",
      "properties": {
        "norad_id": 58654,
        "name": "BEIDOU-3 M28 (C50)",
        "group": "gnss",
        "lat": -32.04818145532423,
        "lon": -85.81179265230499,
        "alt_km": 21528.236743310554,
        "timestamp": "2025-12-06T20:37:56.314472+00:00",
        "meta_object_name": "BEIDOU-3 M28 (C50)",
        "meta_object_id": "2023-207A",
        "meta_epoch": "2025-12-03T07:26:02.398272",
        "meta_mean_motion": 1.86229561,
        "meta_eccentricity": 0.00020314,
        "meta_inclination": 55.5764,
        "meta_ra_of_asc_node": 68.9209,
        "meta_arg_of_pericenter": 265.1091,
        "meta_mean_anomaly": 94.871,
        "meta_ephemeris_type": 0,
        "meta_classification_type": "U",
        "meta_norad_cat_id": 58654,
        "meta_element_set_no": 999,
        "meta_rev_at_epoch": 1319,
        "meta_bstar": 0,
        "meta_mean_motion_dot": -5.1e-07,
        "meta_mean_motion_ddot": 0,
        "tle_line1": "1 58654U 23207A   25337.30974998 -.00000051  00000+0  00000+0 0  9996",
        "tle_line2": "2 58654  55.5764  68.9209 0002031 265.1091  94.8710  1.86229561 13199"
      },
      "geometry": {
        "type": "Point",
        "coordinates": [
          -85.81179265230499,
          -32.04818145532423
        ]
      }
    },
    {
      "type": "Feature",
      "properties": {
        "norad_id": 58655,
        "name": "BEIDOU-3 M26 (C48)",
        "group": "gnss",
        "lat": -3.581293847303575,
        "lon": 66.3399592217789,
        "alt_km": 21531.05847631536,
        "timestamp": "2025-12-06T20:37:56.314490+00:00",
        "meta_object_name": "BEIDOU-3 M26 (C48)",
        "meta_object_id": "2023-207B",
        "meta_epoch": "2025-12-06T07:54:02.857536",
        "meta_mean_motion": 1.862311,
        "meta_eccentricity": 0.00035756,
        "meta_inclination": 55.5812,
        "meta_ra_of_asc_node": 68.8049,
        "meta_arg_of_pericenter": 252.6761,
        "meta_mean_anomaly": 107.299,
        "meta_ephemeris_type": 0,
        "meta_classification_type": "U",
        "meta_norad_cat_id": 58655,
        "meta_element_set_no": 999,
        "meta_rev_at_epoch": 1323,
        "meta_bstar": 0,
        "meta_mean_motion_dot": -4.8e-07,
        "meta_mean_motion_ddot": 0,
        "tle_line1": "1 58655U 23207B   25340.32919974 -.00000048  00000+0  00000+0 0  9992",
        "tle_line2": "2 58655  55.5812  68.8049 0003575 252.6761 107.2990  1.86231100 13230"
      },
      "geometry": {
        "type": "Point",
        "coordinates": [
          66.3399592217789,
          -3.581293847303575
        ]
      }
    },
    {
      "type": "Feature",
      "properties": {
        "norad_id": 59598,
        "name": "GSAT0225 (GALILEO 29)",
        "group": "gnss",
        "lat": -55.00283978057073,
        "lon": 15.474250949519293,
        "alt_km": 23228.785615859313,
        "timestamp": "2025-12-06T20:37:56.314508+00:00",
        "meta_object_name": "GSAT0225 (GALILEO 29)",
        "meta_object_id": "2024-079A",
        "meta_epoch": "2025-12-04T01:47:23.955648",
        "meta_mean_motion": 1.70474518,
        "meta_eccentricity": 0.0002,
        "meta_inclination": 54.9978,
        "meta_ra_of_asc_node": 106.5374,
        "meta_arg_of_pericenter": 171.9845,
        "meta_mean_anomaly": 188.0819,
        "meta_ephemeris_type": 0,
        "meta_classification_type": "U",
        "meta_norad_cat_id": 59598,
        "meta_element_set_no": 999,
        "meta_rev_at_epoch": 999,
        "meta_bstar": 0,
        "meta_mean_motion_dot": 1.5e-07,
        "meta_mean_motion_ddot": 0,
        "tle_line1": "1 59598U 24079A   25338.07458282  .00000015  00000+0  00000+0 0  9999",
        "tle_line2": "2 59598  54.9978 106.5374 0002000 171.9845 188.0819  1.70474518  9992"
      },
      "geometry": {
        "type": "Point",
        "coordinates": [
          15.474250949519293,
          -55.00283978057073
        ]
      }
    },
    {
      "type": "Feature",
      "properties": {
        "norad_id": 59600,
        "name": "GSAT0227 (GALILEO 30)",
        "group": "gnss",
        "lat": 18.72225081760397,
        "lon": -87.28387372020819,
        "alt_km": 23212.59957375068,
        "timestamp": "2025-12-06T20:37:56.314525+00:00",
        "meta_object_name": "GSAT0227 (GALILEO 30)",
        "meta_object_id": "2024-079C",
        "meta_epoch": "2025-12-03T16:06:35.879040",
        "meta_mean_motion": 1.70474617,
        "meta_eccentricity": 0.00034037,
        "meta_inclination": 54.9912,
        "meta_ra_of_asc_node": 106.5479,
        "meta_arg_of_pericenter": 113.2328,
        "meta_mean_anomaly": 246.7577,
        "meta_ephemeris_type": 0,
        "meta_classification_type": "U",
        "meta_norad_cat_id": 59600,
        "meta_element_set_no": 999,
        "meta_rev_at_epoch": 1003,
        "meta_bstar": 0,
        "meta_mean_motion_dot": 1.8e-07,
        "meta_mean_motion_ddot": 0,
        "tle_line1": "1 59600U 24079C   25337.67124860  .00000018  00000+0  00000+0 0  9993",
        "tle_line2": "2 59600  54.9912 106.5479 0003403 113.2328 246.7577  1.70474617 10033"
      },
      "geometry": {
        "type": "Point",
        "coordinates": [
          -87.28387372020819,
          18.72225081760397
        ]
      }
    }
  ]
}